*******************************************************************************
Ephemeris / WWW_USER Fri Mar  7 11:21:24 2025 Pasadena, USA      / Horizons    
*******************************************************************************
Target body name: (2018 VN1)                      {source: JPL#9}
Center body name: Earth (399)                     {source: DE441}
Center-site name: Mauna Kea
*******************************************************************************
Start time      : A.D. 2018-Nov-22 03:51:00.0000 UT      
Stop  time      : A.D. 2018-Nov-22 16:25:00.0000 UT      
Step-size       : 1 minutes
*******************************************************************************
Target pole/equ : undefined
Target radii    : undefined                                                    
Center geodetic : 204.5278, 19.8260847, 4.21024   {E-lon(deg),Lat(deg),Alt(km)}
Center cylindric: 204.5278, 6006.35451, 2151.0229 {E-lon(deg),Dxy(km),Dz(km)}
Center pole/equ : ITRF93                          {East-longitude positive}
Center radii    : 6378.137, 6378.137, 6356.752 km {Equator_a, b, pole_c}       
Target primary  : Sun
Vis. interferer : MOON (R_eq= 1737.400) km        {source: DE441}
Rel. light bend : Sun                             {source: DE441}
Rel. lght bnd GM: 1.3271E+11 km^3/s^2                                          
Small-body perts: Yes                             {source: SB441-N16}
Atmos refraction: NO (AIRLESS)
RA format       : HMS
Time format     : CAL 
Calendar mode   : Mixed Julian/Gregorian
RTS-only print  : NO       
EOP file        : eop.250306.p250602                                           
EOP coverage    : DATA-BASED 1962-JAN-20 TO 2025-MAR-06. PREDICTS-> 2025-JUN-01
Units conversion: 1 au= 149597870.700 km, c= 299792.458 km/s, 1 day= 86400.0 s 
Table cut-offs 1: Elevation (-90.0deg=NO ),Airmass (>38.000=NO), Daylight (YES)
Table cut-offs 2: Solar elongation (  0.0,180.0=NO ),Local Hour Angle( 0.0=NO )
Table cut-offs 3: RA/DEC angular rate (     0.0=NO )                           
*******************************************************************************
Initial IAU76/J2000 heliocentric ecliptic osculating elements (au, days, deg.):
  EPOCH=  2458428.5 ! 2018-Nov-06.00 (TDB)         Residual RMS= .27219        
   EC= .3884608603153671   QR= 1.011903292497374   TP= 2458433.1511739166      
   OM= 228.4137592171332   W=  180.2469578564258   IN= 3.355185598403424       
  Equivalent ICRF heliocentric cartesian coordinates (au, au/d):
   X= 7.364971791856070E-01  Y= 6.361813492829538E-01  Z= 2.815132693616627E-01
  VX=-1.417073247356795E-02 VY= 1.354428742085641E-02 VZ= 4.590405825264917E-03
Asteroid physical parameters (km, seconds, rotational period in hours):        
   GM= n.a.                RAD= n.a.               ROTPER= n.a.                
   H= 26.2                 G= .150                 B-V= n.a.                   
                           ALBEDO= n.a.            STYP= n.a.                  
*******************************************************************************
 Date__(UT)__HR:MN     R.A._________(ICRF)_________DEC
******************************************************
$$SOE
 2018-Nov-22 16:09 Nm  07 24 12.810327 +06 03 50.41950
 2018-Nov-22 16:10 Nm  07 24 12.948927 +06 03 48.77617
 2018-Nov-22 16:11 Nm  07 24 13.087636 +06 03 47.13273
 2018-Nov-22 16:12 Cm  07 24 13.226455 +06 03 45.48918
 2018-Nov-22 16:13 C   07 24 13.365385 +06 03 43.84552
 2018-Nov-22 16:14 C   07 24 13.504427 +06 03 42.20174
 2018-Nov-22 16:15 C   07 24 13.643581 +06 03 40.55786
 2018-Nov-22 16:16 C   07 24 13.782848 +06 03 38.91387
 2018-Nov-22 16:17 C   07 24 13.922228 +06 03 37.26977
 2018-Nov-22 16:18 C   07 24 14.061723 +06 03 35.62556
 2018-Nov-22 16:19 C   07 24 14.201333 +06 03 33.98125
 2018-Nov-22 16:20 C   07 24 14.341058 +06 03 32.33683
 2018-Nov-22 16:21 C   07 24 14.480899 +06 03 30.69231
 2018-Nov-22 16:22 C   07 24 14.620858 +06 03 29.04769
 2018-Nov-22 16:23 C   07 24 14.760934 +06 03 27.40296
 2018-Nov-22 16:24 C   07 24 14.901128 +06 03 25.75814
 2018-Nov-22 16:25 C   07 24 15.041441 +06 03 24.11321
